IRIDIUM 116             
1 43072U 17083C   25249.25712044  .00000484  00000+0  16562-3 0  9990
2 43072  86.3903  80.7022 0002382  86.5570 273.5898 14.34215827403479
IRIDIUM 130             
1 43073U 17083D   25249.08586975 -.00000027  00000+0 -16657-4 0  9995
2 43073  86.3913  81.0221 0002390  91.8722 268.2747 14.34217116403391
IRIDIUM 151             
1 43074U 17083E   25249.26980437  .00000018  00000+0 -64658-6 0  9992
2 43074  86.3907  80.7487 0002217  85.6667 274.4782 14.34217606403440
IRIDIUM 134             
1 43075U 17083F   25249.23809188  .00000003  00000+0 -61192-5 0  9996
2 43075  86.3908  80.7660 0002285  91.9903 268.1554 14.34217393403409
IRIDIUM 137             
1 43076U 17083G   25249.04147242  .00000015  00000+0 -18180-5 0  9994
2 43076  86.3909  80.9354 0002413  75.3434 284.8029 14.34217546403447
IRIDIUM 141             
1 43077U 17083H   25249.24443365  .00000012  00000+0 -28530-5 0  9999
2 43077  86.3904  80.6970 0001877  89.5740 270.5671 14.34217556403473
IRIDIUM 153             
1 43078U 17083J   25249.19661279 -.00000061  00000+0 -28810-4 0  9995
2 43078  86.3939  49.1714 0001727 100.5753 259.5638 14.34216868404577
IRIDIUM 131             
1 43079U 17083K   25249.23174871  .00000039  00000+0  69705-5 0  9990
2 43079  86.3910  80.8696 0002002  86.8712 273.2713 14.34217664403409
